NORAD_CAT_ID,OBJECT_NAME,OBJECT_TYPE,EPOCH,MEAN_MOTION,ECCENTRICITY,INCLINATION,RA_OF_ASC_NODE,ARG_OF_PERICENTER,MEAN_ANOMALY,BSTAR,MEAN_MOTION_DOT,MEAN_MOTION_DDOT,TLE_LINE0,TLE_LINE1,TLE_LINE2,SEMIMAJOR_AXIS,PERIOD,APOGEE,PERIGEE,DECAYED
53401.0,STARLINK-4525,PAYLOAD,2023-04-08 13:10:33,15.08833073,0.0001137,53.214,230.2126,93.1929,266.9193,-2.1212e-05,-6.25e-06,0.0,0 STARLINK-4525,1 53401U 22097P   23098.54899851 -.00000625  00000-0 -21212-4 0  9991,2 53401  53.2140 230.2126 0001137  93.1929 266.9193 15.08833073 37072,6917.902,95.438,540.553,538.98,0.0
53401.0,STARLINK-4525,PAYLOAD,2023-04-09 11:25:57,15.08834124,0.0001403,53.2141,226.0497,75.2492,284.8655,9.1828e-05,1.174e-05,0.0,0 STARLINK-4525,1 53401U 22097P   23099.47636389  .00001174  00000-0  91828-4 0  9997,2 53401  53.2141 226.0497 0001403  75.2492 284.8655 15.08834124 37709,6917.898,95.438,540.734,538.793,0.0
53401.0,STARLINK-4525,PAYLOAD,2023-04-09 14:36:43,15.08840742,0.0001177,53.2146,225.4541,80.0199,280.0926,9.0473e-05,1.152e-05,0.0,0 STARLINK-4525,1 53401U 22097P   23099.60884010  .00001152  00000-0  90473-4 0  9999,2 53401  53.2146 225.4541 0001177  80.0199 280.0926 15.08840742 37233,6917.878,95.438,540.557,538.929,0.0
53401.0,STARLINK-4525,PAYLOAD,2023-04-10 08:05:58,15.08845261,0.0001515,53.2135,222.1858,75.8023,284.3138,0.00024863,3.672e-05,0.0,0 STARLINK-4525,1 53401U 22097P   23100.33748044  .00003672  00000-0  24863-3 0  9996,2 53401  53.2135 222.1858 0001515  75.8023 284.3138 15.08845261 37839,6917.864,95.437,540.777,538.681,0.0
53401.0,STARLINK-4525,PAYLOAD,2023-04-11 01:35:12,15.08855456,0.0001358,53.2132,218.9153,70.5018,289.6121,0.00023167,3.403e-05,0.0,0 STARLINK-4525,1 53401U 22097P   23101.06611189  .00003403  00000-0  23167-3 0  9994,2 53401  53.2132 218.9153 0001358  70.5018 289.6121 15.08855456 37453,6917.833,95.437,540.638,538.759,0.0
53401.0,STARLINK-4525,PAYLOAD,2023-04-11 11:07:31,15.0883645,0.0001262,53.2131,217.1298,86.2488,273.8648,-6.0816e-05,-1.256e-05,0.0,0 STARLINK-4525,1 53401U 22097P   23101.46355801 -.00001256  00000-0 -60816-4 0  9993,2 53401  53.2131 217.1298 0001262  86.2488 273.8648 15.08836450 37511,6917.891,95.438,540.629,538.883,0.0
53401.0,STARLINK-4525,PAYLOAD,2023-04-11 17:29:03,15.08841225,0.0001293,53.2134,215.9379,105.9205,254.193,6.9585e-06,-1.77e-06,0.0,0 STARLINK-4525,1 53401U 22097P   23101.72851559 -.00000177  00000-0  69585-5 0  9996,2 53401  53.2134 215.9379 0001293 105.9205 254.1930 15.08841225 38041,6917.877,95.437,540.636,538.847,0.0
53401.0,STARLINK-4525,PAYLOAD,2023-04-12 14:09:04,15.08846671,0.0001314,53.2133,212.0717,106.3151,253.7986,0.00017741,2.537e-05,0.0,0 STARLINK-4525,1 53401U 22097P   23102.58963341  .00002537  00000-0  17741-3 0  9990,2 53401  53.2133 212.0717 0001314 106.3151 253.7986 15.08846671 37688,6917.86,95.437,540.634,538.816,0.0
53401.0,STARLINK-4525,PAYLOAD,2023-04-13 07:38:19,15.08842059,0.0001306,53.213,208.8013,108.2519,251.8615,0.00014887,2.082e-05,0.0,0 STARLINK-4525,1 53401U 22097P   23103.31827557  .00002082  00000-0  14887-3 0  9993,2 53401  53.2130 208.8013 0001306 108.2519 251.8615 15.08842059 38288,6917.874,95.437,540.643,538.836,0.0
53401.0,STARLINK-4525,PAYLOAD,2023-04-14 12:15:15,15.08841896,0.0001592,53.2172,203.4522,105.0098,255.107,5.2211e-05,5.43e-06,0.0,0 STARLINK-4525,1 53401U 22097P   23104.51059366  .00000543  00000-0  52211-4 0  9995,2 53401  53.2172 203.4522 0001592 105.0098 255.1070 15.08841896 38464,6917.875,95.437,540.841,538.638,0.0
53401.0,STARLINK-4525,PAYLOAD,2023-04-15 13:41:25,15.08846458,0.0001338,53.215,198.6937,92.4242,267.6903,0.0001669,2.37e-05,0.0,0 STARLINK-4525,1 53401U 22097P   23105.57043323  .00002370  00000-0  16690-3 0  9998,2 53401  53.2150 198.6937 0001338  92.4242 267.6903 15.08846458 38139,6917.861,95.437,540.651,538.8,0.0
53401.0,STARLINK-4525,PAYLOAD,2023-04-16 05:35:17,15.08824956,0.0001465,53.2162,195.7201,80.6539,279.4618,-0.00020409,-3.533e-05,0.0,0 STARLINK-4525,1 53401U 22097P   23106.23284131 -.00003533  00000-0 -20409-3 0  9993,2 53401  53.2162 195.7201 0001465  80.6539 279.4618 15.08824956 38237,6917.926,95.439,540.805,538.778,0.0
53401.0,STARLINK-4525,PAYLOAD,2023-04-16 13:32:13,15.08835852,0.0001271,53.2137,194.2312,74.3148,285.7984,0.00011466,1.537e-05,0.0,0 STARLINK-4525,1 53401U 22097P   23106.56404031  .00001537  00000-0  11466-3 0  9995,2 53401  53.2137 194.2312 0001271  74.3148 285.7984 15.08835852 38779,6917.893,95.438,540.637,538.879,0.0
53401.0,STARLINK-4525,PAYLOAD,2023-04-16 15:07:36,15.08838183,0.0001368,53.2141,193.9341,74.2918,285.8225,0.00027299,4.059e-05,0.0,0 STARLINK-4525,1 53401U 22097P   23106.63027986  .00004059  00000-0  27299-3 0  9996,2 53401  53.2141 193.9341 0001368  74.2918 285.8225 15.08838183 38299,6917.886,95.438,540.697,538.805,0.0
53401.0,STARLINK-4525,PAYLOAD,2023-04-17 11:47:37,15.0884772,0.0001438,53.214,190.068,66.3968,293.7175,0.00067093,0.00010408,0.0,0 STARLINK-4525,1 53401U 22097P   23107.49140208  .00010408  00000-0  67093-3 0  9995,2 53401  53.2140 190.0680 0001438  66.3968 293.7175 15.08847720 38915,6917.857,95.437,540.717,538.727,0.0
53401.0,STARLINK-4525,PAYLOAD,2023-04-17 14:58:23,15.08854049,0.0001422,53.2137,189.4726,67.2748,292.8394,0.00084135,0.00013133,0.0,0 STARLINK-4525,1 53401U 22097P   23107.62388028  .00013133  00000-0  84135-3 0  9998,2 53401  53.2137 189.4726 0001422  67.2748 292.8394 15.08854049 38930,6917.837,95.437,540.686,538.719,0.0
53401.0,STARLINK-4525,PAYLOAD,2023-04-18 10:03:01,15.08849276,0.0001566,53.2144,185.9045,84.1562,275.9609,0.00057657,8.902e-05,0.0,0 STARLINK-4525,1 53401U 22097P   23108.41876206  .00008902  00000-0  57657-3 0  9993,2 53401  53.2144 185.9045 0001566  84.1562 275.9609 15.08849276 39055,6917.852,95.437,540.8,538.634,0.0
53401.0,STARLINK-4525,PAYLOAD,2023-04-19 05:07:39,15.08846529,0.0001564,53.2151,182.3394,61.5613,298.5536,0.00090889,0.00014209,0.0,0 STARLINK-4525,1 53401U 22097P   23109.21364700  .00014209  00000-0  90889-3 0  9994,2 53401  53.2151 182.3394 0001564  61.5613 298.5536 15.08846529 38681,6917.86,95.437,540.807,538.643,0.0
53401.0,STARLINK-4525,PAYLOAD,2023-04-19 08:18:25,15.0884218,0.0001542,53.2146,181.7426,77.7503,282.3661,0.00043939,6.712e-05,0.0,0 STARLINK-4525,1 53401U 22097P   23109.34612598  .00006712  00000-0  43939-3 0  9993,2 53401  53.2146 181.7426 0001542  77.7503 282.3661 15.08842180 39193,6917.874,95.437,540.805,538.672,0.0
53401.0,STARLINK-4525,PAYLOAD,2023-04-19 09:53:48,15.08843324,0.0001559,53.2146,181.4453,77.0818,283.0348,0.00037176,5.634e-05,0.0,0 STARLINK-4525,1 53401U 22097P   23109.41236549  .00005634  00000-0  37176-3 0  9997,2 53401  53.2146 181.4453 0001559  77.0818 283.0348 15.08843324 39203,6917.87,95.437,540.814,538.657,0.0
53401.0,STARLINK-4525,PAYLOAD,2023-04-20 04:58:26,15.08842013,0.0001748,53.2158,177.8773,101.4801,258.6387,0.00022334,3.268e-05,0.0,0 STARLINK-4525,1 53401U 22097P   23110.20724587  .00003268  00000-0  22334-3 0  9991,2 53401  53.2158 177.8773 0001748 101.4801 258.6387 15.08842013 38837,6917.874,95.437,540.948,538.53,0.0
53401.0,STARLINK-4525,PAYLOAD,2023-04-20 12:55:21,15.08842343,0.0001446,53.2159,176.3914,88.8349,271.2809,0.00020533,2.982e-05,0.0,0 STARLINK-4525,1 53401U 22097P   23110.53844716  .00002982  00000-0  20533-3 0  9995,2 53401  53.2159 176.3914 0001446  88.8349 271.2809 15.08842343 39375,6917.873,95.437,540.739,538.738,0.0
53401.0,STARLINK-4525,PAYLOAD,2023-04-20 20:52:17,15.0883453,0.0001411,53.2167,174.9046,87.9585,272.1569,2.5934e-05,1.25e-06,0.0,0 STARLINK-4525,1 53401U 22097P   23110.86964987  .00000125  00000-0  25934-4 0  9992,2 53401  53.2167 174.9046 0001411  87.9585 272.1569 15.08834530 39426,6917.897,95.438,540.738,538.786,0.0
53401.0,STARLINK-4525,PAYLOAD,2023-04-21 04:49:13,15.08831317,0.0001477,53.2159,173.4175,98.3423,261.7737,-4.2537e-07,-2.95e-06,0.0,0 STARLINK-4525,1 53401U 22097P   23111.20085250 -.00000295  00000-0 -42537-6 0  9998,2 53401  53.2159 173.4175 0001477  98.3423 261.7737 15.08831317 38984,6917.907,95.438,540.794,538.75,0.0
53401.0,STARLINK-4525,PAYLOAD,2023-04-21 11:10:46,15.08835997,0.0001485,53.2164,172.2281,96.5533,263.5629,7.2863e-05,8.72e-06,0.0,0 STARLINK-4525,1 53401U 22097P   23111.46581173  .00000872  00000-0  72863-4 0  9993,2 53401  53.2164 172.2281 0001485  96.5533 263.5629 15.08835997 39514,6917.893,95.438,540.785,538.73,0.0
53401.0,STARLINK-4525,PAYLOAD,2023-04-21 20:43:05,15.08837905,0.0001328,53.2138,170.4425,94.0325,266.0819,0.00013915,1.927e-05,0.0,0 STARLINK-4525,1 53401U 22097P   23111.86325264  .00001927  00000-0  13915-3 0  9998,2 53401  53.2138 170.4425 0001328  94.0325 266.0819 15.08837905 39579,6917.887,95.438,540.67,538.833,0.0
53401.0,STARLINK-4525,PAYLOAD,2023-04-22 12:36:55,15.08855593,0.0001276,53.2138,167.4685,93.071,267.0429,0.00039709,6.04e-05,0.0,0 STARLINK-4525,1 53401U 22097P   23112.52564469  .00006040  00000-0  39709-3 0  9994,2 53401  53.2138 167.4685 0001276  93.0710 267.0429 15.08855593 39674,6917.833,95.437,540.58,538.815,0.0
53401.0,STARLINK-4525,PAYLOAD,2023-04-22 14:12:18,15.08858635,0.000127,53.2133,167.1708,93.093,267.0207,0.00047125,7.224e-05,0.0,0 STARLINK-4525,1 53401U 22097P   23112.59188366  .00007224  00000-0  47125-3 0  9995,2 53401  53.2133 167.1708 0001270  93.0930 267.0207 15.08858635 39191,6917.823,95.436,540.567,538.81,0.0
53401.0,STARLINK-4525,PAYLOAD,2023-04-22 15:47:41,15.08862712,0.0001237,53.2129,166.8734,93.2976,266.8157,0.0006204,9.606e-05,0.0,0 STARLINK-4525,1 53401U 22097P   23112.65812277  .00009606  00000-0  62040-3 0  9996,2 53401  53.2129 166.8734 0001237  93.2976 266.8157 15.08862712 39693,6917.811,95.436,540.532,538.82,0.0
53401.0,STARLINK-4525,PAYLOAD,2023-04-23 12:27:43,15.08841957,0.0001187,53.2122,163.0069,89.921,270.1918,0.00011489,1.541e-05,0.0,0 STARLINK-4525,1 53401U 22097P   23113.51924853  .00001541  00000-0  11489-3 0  9997,2 53401  53.2122 163.0069 0001187  89.9210 270.1918 15.08841957 39335,6917.874,95.437,540.561,538.918,0.0
